name,operator,address,lat,lon,point_type,opening_hours,phone,prepare_instruction
WOJEWÓDZKI SPECJALISTYCZNY SZPITAL IM. DR WŁ. BIEGAŃSKIEGO,,ŁÓDŹ 91-347 UL. GEN. KAROLA KNIAZIEWICZA 1/5,51.760932,19.460718,hospital,24/7,42 251 60 59,
WOJEWÓDZKI SPECJALISTYCZNY SZPITAL IM. DR WŁ. BIEGAŃSKIEGO,,ŁÓDŹ 91-347 UL. GEN. KAROLA KNIAZIEWICZA 1/5,51.760932,19.460718,hospital,24/7,42 251 60 59,
SZPITAL WOJEWÓDZKI IM. JANA PAWŁA II W BEŁCHATOWIE,,BEŁCHATÓW 97-400  UL. CZAPLINIECKA 123,51.37577335,19.3504204830224,hospital,24/7,44 635 82 00,
SZPITAL WOJEWÓDZKI IM. JANA PAWŁA II W BEŁCHATOWIE,,BEŁCHATÓW 97-400  UL. CZAPLINIECKA 123,51.37577335,19.3504204830224,hospital,24/7,44 635 82 00,
SZPITAL POWIATOWY W RADOMSKU,,RADOMSKO 97-500 UL. JAGIELLOŃSKA 36,51.0568465,19.4592206288969,hospital,24/7,44 685 47 16,
SZPITAL POWIATOWY W RADOMSKU,,RADOMSKO 97-500 UL. JAGIELLOŃSKA 36,51.0568465,19.4592206288969,hospital,24/7,44 685 47 16,
TOMASZOWSKIE CENTRUM ZDROWIA SPÓŁKA Z O.O,,TOMASZÓW MAZOWIECKI 97-200 UL. JANA PAWŁA II 35,51.5225067,20.005331,hospital,24/7,44 725 71 34,
TOMASZOWSKIE CENTRUM ZDROWIA SPÓŁKA Z O.O,,TOMASZÓW MAZOWIECKI 97-200 UL. JANA PAWŁA II 35,51.5225067,20.005331,hospital,24/7,44 725 71 34,
WOJEWÓDZKI ZESPÓŁ ZAKŁADÓW OPIEKI ZDROWOTNEJ CENTRUM LECZENIA CHORÓB,,ŁÓDŹ 91-520 UL.OKÓLNA 181,51.848275,19.480145,hospital,24/7,42 659 00 11,
WOJEWÓDZKI ZESPÓŁ ZAKŁADÓW OPIEKI ZDROWOTNEJ CENTRUM LECZENIA CHORÓB,,ŁÓDŹ 91-520 UL.OKÓLNA 181,51.848275,19.480145,hospital,24/7,42 659 00 11,
SZPITAL WOJEWÓDZKI IM. PRYMASA KARDYNAŁA STEFANA WYSZYŃSKIEGO W,,SIERADZ 98-200 UL. ARMII KRAJOWEJ 7,51.5820613,18.7104555,hospital,24/7,43 827 54 26,
SZPITAL WOJEWÓDZKI IM. PRYMASA KARDYNAŁA STEFANA WYSZYŃSKIEGO W,,SIERADZ 98-200 UL. ARMII KRAJOWEJ 7,51.5820613,18.7104555,hospital,24/7,43 827 54 26,
WOJEWÓDZKI SZPITAL ZESPOLONY IM. STANISŁAWA RYBICKIEGO W SKIERNIEWICACH,,SKIERNIEWICE 96-100 UL. DR. STANISŁAWA RYBICKIEGO 1,51.964806,20.153644,hospital,24/7,46 834 07 50,
WOJEWÓDZKI SZPITAL ZESPOLONY IM. STANISŁAWA RYBICKIEGO W SKIERNIEWICACH,,SKIERNIEWICE 96-100 UL. DR. STANISŁAWA RYBICKIEGO 1,51.964806,20.153644,hospital,24/7,46 834 07 50,
"""KUTNOWSKI SZPITAL SAMORZĄDOWY"" SPÓŁKA
Z OGRANICZONĄ ODPOWIEDZIALNOŚCIĄ",,KUTNO 99-300 UL. KOŚCIUSZKI 52,52.23900645,19.3717782587223,hospital,24/7,24 388 02 02,
"""KUTNOWSKI SZPITAL SAMORZĄDOWY"" SPÓŁKA
Z OGRANICZONĄ ODPOWIEDZIALNOŚCIĄ",,KUTNO 99-300 UL. KOŚCIUSZKI 52,52.23900645,19.3717782587223,hospital,24/7,24 388 02 02,
WOJEWÓDZKA STACJA RATOWNICTWA MEDYCZNEGO W ŁODZI,,ŁÓDŹ 91-202 UL. WARECKA 2,51.7970845,19.4013861,transport,24/7,42 636 15 65,
ZESPÓŁ TRANSPORTU SANITARNEGO,,"91-202 ŁÓDŹ, UL. WARECKA 2",51.7970845,19.4013861,transport,24/7,42 655 76 71,
ZESPÓŁ TRANSPORTU SANITARNEGO,,"99-300 KUTNO, UL. KOŚCIUSZKI 52",52.23900645,19.3717782587223,transport,24/7,42 655 76 71,
ZESPÓŁ TRANSPORTU SANITARNEGO,,"98-100 ŁASK, UL. 9 MAJA 50",51.5888072,19.1407040039778,transport,24/7,42 655 76 71,
WOJEWÓDZKI SZPITAL SPECJALISTYCZNY IM. MARII SKŁODOWSKIEJ - CURIE W ZGIERZU,,ZGIERZ 95-100 UL. PARZĘCZEWSKA 35,51.862656,19.3914339,hospital,24/7,42 716 37 12,
WOJEWÓDZKI SZPITAL SPECJALISTYCZNY IM. MARII SKŁODOWSKIEJ - CURIE W ZGIERZU,,ZGIERZ 95-100 UL. PARZĘCZEWSKA 35,51.862656,19.3914339,hospital,24/7,42 716 37 12,
DRAVIS SPÓŁKA Z OGRANICZONĄ ODPOWIEDZIALNOŚCIĄ,,NOWY TOMYŚL 64-300 UL. HENRYKA SIENKIEWICZA 3,52.31529,16.14136,hospital,24/7,61 44 27 190,
STACJA DIALIZ,,ZGIERZ 95-100 UL. PARZĘCZEWSKA 35,51.862656,19.3914339,hospital,24/7,42 714 44 40,
AMERICAN HEART OF POLAND SPÓŁKA AKCYJNA,,USTROŃ 43-450 UL. SANATORYJNA,49.7069779,18.8330128,hospital,24/7,32 76 04 600,
ZGIERSKIE CENTRUM KARDIOLOGII MED - PRO POLSKO-AMERYKAŃSKICH KLINIK SERCA,,ZGIERZ 95-100 UL. PARZĘCZEWSKA 35,51.862656,19.3914339,hospital,24/7,42 231 47 10,
WOJEWÓDZKI SZPITAL ZESPOLONY W KIELCACH,,"KIELCE, 25-736, UL. GRUNWALDZKA 45",50.8733192,20.6009163600855,hospital,24/7,41-367-13-01,
WOJEWÓDZKI SZPITAL ZESPOLONY W KIELCACH,,"KIELCE,  25-317, UL RADIOWA 7",50.87486545,20.6376982470513,hospital,24/7,41-363-71-31,
POWIATOWY ZAKŁAD OPIEKI ZDROWOTNEJ W STARACHOWICACH,,"STARACHOWICE, 27-200, RADOMSKA 70",51.0641001,21.0723778,hospital,24/7,41-273-91-13,
POWIATOWY ZAKŁAD OPIEKI ZDROWOTNEJ W STARACHOWICACH,,"STARACHOWICE, 27-200, RADOMSKA 70",51.0641001,21.0723778,hospital,24/7,41-273-91-45 LUB 41-273-99-09,
ZESPÓŁ OPIEKI ZDROWOTNEJ W BUSKU-ZDROJU,,"BUSKO-ZDRÓJ, 28-100, UL BOHATERÓW
WARSZAWY 67",50.468389,20.705502,hospital,24/7,41-378-24-04 WEWN. 337,
ZESPÓŁ OPIEKI ZDROWOTNEJ W BUSKU-ZDROJU,,"BOHATERÓW WARSZAWY 67, 28-100 BUSKO-ZDRÓJ",50.4680352,20.7046523104,hospital,24/7,41-378-24-01 WEW. 237 LUB WEW. 335,
ŚWIĘTOKRZYSKIE CENTRUM PSYCHIATRII W MORAWICY,,"MORAWICA , 26-026, UL SPACEROWA 5",50.78622,20.61331,hospital,24/7,41-36-41-234,
UZDROWISKO BUSKO-ZDRÓJ S.A.,,"BUSKO-ZDRÓJ, 28-100,
UL. GEN. F. RZEWUSKIEGO 1",50.467279,20.719308,hospital,24/7,41-370-32-00,
"SANATORIUM UZDROWISKOWE ""MIKOŁAJ""",,"BUSKO-ZDRÓJ, 28-100,
UL. 1 MAJA 3",50.4611425,20.7207556,hospital,24/7,"41-370-32-26, 500-721-966 145",
ŚWIĘTOKRZYSKIE CENTRUM RATOWNICTWA MEDYCZNEGO I TRANSPORTU SANITARNEGO W,,"KIELCE, 25-311, ŚW. LEONARDA 10",50.879655,20.628806,transport,24/7,41-344-65-03; 41-344-26-47,
ŚWIĘTOKRZYSKIE CENTRUM RATOWNICTWA MEDYCZNEGO I TRANSPORTU SANITARNEGO W,,"KIELCE, 25-311, ŚW. LEONARDA 10",50.879655,20.628806,transport,24/7,41-344-65-03; 41-344-26-47,
ŚWIĘTOKRZYSKIE CENTRUM RATOWNICTWA MEDYCZNEGO I TRANSPORTU SANITARNEGO W,,"STARACHOWICE, 27-200, BORKOWSKIEGO 2",51.050684,21.069466,transport,24/7,41-344-65-03; 41-344-26-47,
SAMODZIELNY PUBLICZNY ZAKŁAD OPIEKI ZDROWOTNEJ W CZŁUCHOWIE,,CZŁUCHÓW / 77-300 / UL. SZCZECIŃSKA 16,53.6609588,17.3536314,hospital,24/7,59 834 24 59,
SAMODZIELNY PUBLICZNY ZAKŁAD OPIEKI ZDROWOTNEJ W CZŁUCHOWIE,,CZŁUCHÓW / 77-300 / UL. SZCZECIŃSKA 16,53.6609588,17.3536314,hospital,24/7,59 834 24 59,
WOJEWÓDZKI SZPITAL SPECJALISTYCZNY IM. JANUSZA KORCZAKA W SŁUPSKU SPÓŁKA Z,,SŁUPSK / 76-200 / UL. HUBALCZYKÓW 1,54.4516851,17.0637619,hospital,24/7,59 846 06 00,
WOJEWÓDZKI SZPITAL SPECJALISTYCZNY IM. JANUSZA KORCZAKA W SŁUPSKU SPÓŁKA Z,,USTKA / 76-271 / UL. MICKIEWICZA 12,54.58638515,16.8631634811451,hospital,24/7,59 846 06 00,
SZPITAL SPECJALISTYCZNY IM. J. K. ŁUKOWICZA W CHOJNICACH,,CHOJNICE / 89-600 / UL. LEŚNA 10,53.7124365,17.5483145,hospital,24/7,52 395 67 69,
SZPITAL SPECJALISTYCZNY IM. J. K. ŁUKOWICZA W CHOJNICACH,,CHOJNICE / 89-600 / UL. LEŚNA 10,53.7124365,17.5483145,hospital,24/7,52 395 67 69,
7 SZPITAL MARYNARKI WOJENNEJ Z PRZYCHODNIĄ SAMODZIELNY PUBLICZNY,,GDAŃSK80-305UL. POLANKI 117,54.393883,18.56726,hospital,24/7,58 552 63 26,
SAMODZIELNY PUBLICZNY ZAKŁAD OPIEKI ZDROWOTNEJ MINISTERSTWA SPRAW,,GDAŃSK / 80-104 / UL. KARTUSKA 4/6,54.3507893,18.6353301,hospital,24/7,58 309 82 00 / 58 303 12 64,
SAMODZIELNY PUBLICZNY ZAKŁAD OPIEKI ZDROWOTNEJ MINISTERSTWA SPRAW,,GDAŃSK / 80-104 / UL. KARTUSKA 4/6,54.3507893,18.6353301,hospital,24/7,58 309 82 00 / 58 303 12 64,
UNIWERSYTECKIE CENTRUM MEDYCYNY MORSKIEJ I TROPIKALNEJ,,GDYNIA / 81-519 / UL. POWSTANIA STYCZNIOWEGO 9B,54.4874074,18.5488374,hospital,24/7,58 699 85 06,
UNIWERSYTECKIE CENTRUM MEDYCYNY MORSKIEJ I TROPIKALNEJ,,GDYNIA / 81-519 / UL. POWSTANIA STYCZNIOWEGO 9B,54.4874074,18.5488374,hospital,24/7,58 699 85 06,
SZPITALE TCZEWSKIE SPÓŁKA AKCYJNA,,TCZEW / 83-110 / UL. WOJSKA POLSKIEGO 5,54.08610005,18.789810645151,hospital,24/7,58 777 66 73,
SZPITALE TCZEWSKIE SPÓŁKA AKCYJNA,,GNIEW / 83-140 / OSIEDLE WITOSA 10,53.8386111,18.8302778,hospital,24/7,58 777 66 73,
SZPITALE TCZEWSKIE SPÓŁKA AKCYJNA,,TCZEW / 83-110 / UL. 1 MAJA 2,54.0905936,18.7976830138493,hospital,24/7,58 777 66 73,
POMORSKIE CENTRUM TOKSYKOLOGII SPÓŁKA Z OGRANICZONĄ,,GDAŃSK / 80-104 / UL. KARTUSKA 4/6,54.3507893,18.6353301,hospital,24/7,58 682 04 04 / 58 682 19 39,
POMORSKIE CENTRUM TOKSYKOLOGII SPÓŁKA Z OGRANICZONĄ,,GDAŃSK / 80-104 / UL. KARTUSKA 4/6,54.3507893,18.6353301,hospital,24/7,58 682 04 04 / 58 682 19 39,
SZPITAL DZIECIĘCY POLANKI IM. MACIEJA PŁAŻYŃSKIEGO W GDAŃSKU SPÓŁKA Z,,GDAŃSK / 80-308 / UL. POLANKI 119,54.39553395,18.5610613991729,hospital,24/7,58 520 93 00,
SZPITAL DZIECIĘCY POLANKI IM. MACIEJA PŁAŻYŃSKIEGO W GDAŃSKU SPÓŁKA Z,,GDAŃSK / 80-308 / UL. POLANKI 119,54.39553395,18.5610613991729,hospital,24/7,58 520 93 00,
SZPITAL SPECJALISTYCZNY W PRABUTACH SPÓŁKA Z OGRANICZONĄ,,PRABUTY / 82-550 / UL. KURACYJNA 30,53.7380131,19.2078884726554,hospital,24/7,55 262 43 28,
SZPITAL SPECJALISTYCZNY W PRABUTACH SPÓŁKA Z OGRANICZONĄ,,PRABUTY / 82-550 / UL. KURACYJNA 30,53.7380131,19.2078884726554,hospital,24/7,55 262 43 28,
SZPITAL PUCKI SP. Z O.O.,,PUCK84-100UL. 1-GO MAJA 13A,52.550815,18.49902,hospital,24/7,58 380 02 91 / 58 380 16 61,
SZPITAL PUCKI SP. Z O.O.,,PUCK84-100UL. 1-GO MAJA 13A,52.550815,18.49902,hospital,24/7,58 380 02 91 / 58 380 16 61,
SZPITAL SPECJALISTYCZNY W KOŚCIERZYNIE SPÓŁKA Z OGRANICZONĄ,,KOŚCIERZYNA / 83-400 / UL. ALOJZEGO PIECHOWSKIEGO 36,54.1212073,17.949461275287,hospital,24/7,58 686 01 11,
SZPITAL SPECJALISTYCZNY W KOŚCIERZYNIE SPÓŁKA Z OGRANICZONĄ,,KOŚCIERZYNA / 83-400 / UL. ALOJZEGO PIECHOWSKIEGO 36,54.1212073,17.949461275287,hospital,24/7,58 686 01 11,
SZPITAL SPECJALISTYCZNY W KOŚCIERZYNIE SPÓŁKA Z OGRANICZONĄ,,DZIERŻĄŻNO / 83-332 / UL. SZPITALNA 36,54.32765245,18.2609269785029,hospital,24/7,58 686 01 11,
SZPITAL MIEJSKI W MIASTKU SPÓŁKA Z OGRANICZONĄ ODPOWIEDZIALNOŚCIĄ,,MIASTKO77-200UL. GEN. J. WYBICKIEGO 30,54.011965,16.984461,hospital,24/7,59 857 09 00 / 59 857 09 16 / 59 857 09 17 / 59 857 09 34 / 59 857 09 02,
SZPITAL MIEJSKI W MIASTKU SPÓŁKA Z OGRANICZONĄ ODPOWIEDZIALNOŚCIĄ,,MIASTKO77-200UL. GEN. J. WYBICKIEGO 30,54.011965,16.984461,hospital,24/7,59 857 09 00 / 59 857 09 16 / 59 857 09 17 / 59 857 09 34 / 59 857 09 02,
FALCK MEDYCYNA SPÓŁKA Z OGRANICZONĄ,,WARSZAWA / 01-102 / UL.  JANA OLBRACHTA 94,52.2345364,20.9288174841809,hospital,24/7,"22 535 91 00, 22 535 91 01",
FALCK MEDYCYNA REGION POMORSKI,,GDAŃSK / 80-371/ UL. JAGIELLOŃSKA 13,54.4132249,18.5933468,hospital,24/7,"22 535 91 00, 22 535 91 01",
FALCK MEDYCYNA REGION POMORSKI,,WEJHEROWO / 84-200/ UL. GDAŃSKA 47,54.602426,18.2858704185185,hospital,24/7,"22 535 91 00, 22 535 91 01",
FALCK MEDYCYNA REGION POMORSKI,,BOLESŁAWICE / 76-251/ UL. SŁUPSKA 5,54.4503697,16.9648202,hospital,24/7,"22 535 91 00, 22 535 91 01",
FALCK MEDYCYNA REGION POMORSKI,,TCZEW / 83-110/ UL. 1 MAJA 20,54.0927249,18.7977563,hospital,24/7,"22 535 91 00, 22 535 91 01",
FALCK MEDYCYNA REGION POMORSKI,,CZŁUCHÓW / 77-300/ ALEJA WOJSKA POLSKIEGO 3,53.6683758,17.3602103702632,hospital,24/7,"22 535 91 00, 22 535 91 01",
FALCK MEDYCYNA REGION POMORSKI,,WIELKI KLINCZ / 83-423/ UL. DERDOWSKIEGO 3,54.1014183,18.0608361,hospital,24/7,"22 535 91 00, 22 535 91 01",
MEGREZ SPÓŁKA Z OGRANICZONĄ ODPOWIEDZIALNOŚCIĄ,,TYCHY 43-100 EDUKACJI 102,50.11318685,19.0084217798623,hospital,24/7,32 325 51 48,
WOJEWÓDZKI SZPITAL SPECJALISTYCZNY,,TYCHY 43-100 EDUKACJI 102,50.11318685,19.0084217798623,hospital,24/7,32 325 51 48,
AMERICAN HEART OF POLAND SPÓŁKA AKCYJNA,,"USTROŃ, 43-450,  UL. SANATORYJNA 1",49.7246591,18.8252027531806,hospital,24/7,32 760 46 00,
SZPITAL POLSKI IM. ŚW. ELŻBIETY,,TYCHY 43-100 EDUKACJI 102,50.11318685,19.0084217798623,hospital,24/7,32 758 67 01,
SZPITAL POWIATOWY W ZAWIERCIU,,ZAWIERCIE 42-400 MIODOWA 14,50.48177495,19.4088093146077,hospital,24/7,32 674 02 00,
SZPITAL,,ZAWIERCIE 42-400 MIODOWA 14,50.48177495,19.4088093146077,hospital,24/7,32 674 02 00,
SZPITAL REJONOWY IM. DR. JÓZEFA ROSTKA W RACIBORZU,,RACIBÓRZ 47-400 GAMOWSKA 3,50.1016677,18.2023529,hospital,24/7,32 755 50 00,
SZPITAL RACIBÓRZ,,RACIBÓRZ 47-400 GAMOWSKA 3,50.1016677,18.2023529,hospital,24/7,32 755 50 00,
SCANMED,,KRAKÓW 30-150 ARMII KRAJOWEJ 18,50.07179465,19.8959748309906,hospital,24/7,32 755 50 00,
ZDROWOTNEJ POLSKIEJ GRUPY MEDYCZNEJ IM. POLONII ŚWIATA,,RACIBÓRZ 47-400 GAMOWSKA 3A,50.1168972,18.1407407,hospital,24/7,32 454 59 85,
SZPITAL SPECJALISTYCZNY NR 1 W BYTOMIU,,BYTOM 41-902 STEFANA ŻEROMSKIEGO 7,50.35253005,18.9223490382014,hospital,24/7,32 396 32 00,
ODDZIAŁY I PRACOWNIE,,BYTOM 41-902 STEFANA ŻEROMSKIEGO 7,50.35253005,18.9223490382014,hospital,24/7,32 396 32 00,
ODDZIAŁ OBSERWACYJNO-ZAKAŹNY,,BYTOM 41-902 ALEJA LEGIONÓW 49,50.35365345,18.9118963610471,hospital,24/7,32 281 92 41,
SZPITAL SPECJALISTYCZNY W CHORZOWIE,,CHORZÓW 41-500 ZJEDNOCZENIA 10,50.292197,18.9531059408123,hospital,24/7,32 346 36 15,
SZPITAL,,CHORZÓW 41-500 ZJEDNOCZENIA 10,50.292197,18.9531059408123,hospital,24/7,32 346 36 15,
WOJEWÓDZKI SZPITAL SPECJALISTYCZNY IM. N.M.P.,,CZĘSTOCHOWA 42-200 BIALSKA 104/118,50.83005025,19.0920863648342,hospital,24/7,34 367 30 00,
SZPITAL SPECJALISTYCZNY,,CZĘSTOCHOWA 42-200 BIALSKA 104/118,50.83005025,19.0920863648342,hospital,24/7,34 367 30 00,
ODDZIAŁ OBSERWACYJNO-ZAKAŹNY,,CZĘSTOCHOWA 42-200 PCK 7,50.8295982,19.1129477512973,hospital,24/7,34 367 30 15,
ZESPÓŁ ZAKŁADÓW OPIEKI ZDROWOTNEJ W CIESZYNIE,,CIESZYN 43-400 BIELSKA 4,49.7462769,18.6389878,hospital,24/7,33 854 92 00,
SZPITAL ŚLĄSKI,,CIESZYN 43-400 BIELSKA 4,49.7462769,18.6389878,hospital,24/7,33 854 92 00 SP ZOZ REJONOWE POGOTOWIE RATUNKOWE W,
404 SOSNOWCU,,SOSNOWIEC 41-200 UL. TEATRALNA 9,50.27057155,19.1252062486767,hospital,24/7,32 363 60 32,
ZESPÓŁ TRANSPORTU SANITARNEGO,,SOSNOWIEC 41-200 UL. TEATRALNA 9,50.27057155,19.1252062486767,transport,24/7,412,
BIELSKIE POGOTOWIE RATUNKOWE,,BIELSKO-BIAŁA 43-300 UL. EMILII PLATER 14,49.820159,19.0248275,hospital,24/7,33 815 90 45,
ZESPÓŁ TRANSPORTU SANITARNEGO,,BIELSKO-BIAŁA 43-300 UL. EMILII PLATER 14,49.820159,19.0248275,transport,24/7,420,
WOJEWÓDZKIE POGOTOWIE RATUNKOWE W KATOWICACH,,KATOWICE 40-024 UL. POWSTAŃCÓW 52,50.2516874,19.0328129,hospital,24/7,32 609 31 40,
ZESPÓŁ TRANSPORTU SANITARNEGO,,RYBNIK 44-200 UL. ENERGETYKÓW 46,50.1124298,18.5206971221805,transport,24/7,428,
SP ZOZ STACJA POGOTOWIA RATUNKOWEGO,,CZĘSTOCHOWA 42-202 UL. JANA KILIŃSKIEGO 10,50.81313105,19.1142403899889,transport,24/7,34 378 52 33,
ZESPÓŁ TRANSPORTU SANITARNEGO,,CZĘSTOCHOWA 42-202 UL. JANA KILIŃSKIEGO 10,50.81313105,19.1142403899889,transport,24/7,436,
SP ZOZ ZESPÓŁ OPIEKI ZDROWOTNEJ W LUBLIŃCU,,LUBLINIEC 42-700 UL. SOBIESKIEGO 9,50.66526685,18.6809904616172,hospital,24/7,34 350 63 80,
ZESPÓŁ TRANSPORTU SANITARNEGO,,LUBLINIEC 42-700 UL. GRUNWALDZKA  9,50.6675901,18.6792785,transport,24/7,444,
SP ZESPÓŁ OPIEKI ZDROWOTNEJ W MYSZKOWIE,,MYSZKÓW 42-300 UL. ALEJA WOLNOŚCI 29,50.5726125,19.3068908,hospital,24/7,34 313 88 80,
ZESPÓŁ TRANSPORTU SANITARNEGO,,MYSZKÓW 42-300 UL. ALEJA WOLNOŚCI 29,50.5726125,19.3068908,transport,24/7,452 PP ZAKŁAD OPIEKI ZDROWOTNEJ W RYDUŁTOWACH I,
WODZISŁAWIU ŚLĄSKIM Z SIEDZIBĄ W WODZISŁAWIU ŚLĄSKIM,,WODZISŁAW ŚLĄSKI 44-300 UL. 26 MARCA 51,50.0087305,18.4642327,hospital,24/7,32 459 18 00,
ZESPÓŁ TRANSPORTU SANITARNEGO,,RYDUŁTOWY 44-280 UL. PLEBISCYTOWA 47,50.0589301,18.4230592331034,transport,24/7,462,
ZESPÓŁ OPIEKI ZDROWOTNEJ W KŁOBUCKU,,KŁOBUCK 42-100 UL. 11 LISTOPADA 5C,50.90664005,18.9374659397547,hospital,24/7,34 317 22 06,
ZESPÓŁ TRANSPORTU SANITARNEGO,,KŁOBUCK 42-100 UL. STASZICA 28,50.899224,18.935415,transport,24/7,470 ZBM ZDROWIE MARIA SADOWSKA-WIECZOREK  BARTOSZ,
472 WIECZOREK SPÓŁKA JAWNA,,BYTOM 41-902 UL. POWSTAŃCÓW WARSZAWSKICH 64B/1,50.3481648,18.9156801,hospital,24/7,32 745 42 37,
ZESPÓŁ TRANSPORTU SANITARNEGO,,BYTOM 41-902 UL. POWSTAŃCÓW WARSZAWSKICH 64B/1,50.3481648,18.9156801,transport,24/7,483,
JURA RESCUE TEAM S.C.,,ZAWIERCIE 42-400 UL. WŁADYSŁAWA JAGIEŁŁY 10,50.4975902,19.42297,hospital,24/7,513131273,
ZESPÓŁ TRANSPORTU SANITARNEGO,,ZAWIERCIE 42-400 UL. MIODOWA 14,50.48177495,19.4088093146077,transport,24/7,491 DANRECH SPECJALISTYCZNY TRANSPORT MEDYCZNY,
493 DANIEL PORC,,DĄBROWA GÓRNICZA 42-530 UL. MODRZEJOWSKA 2,50.3106727,19.2848756,hospital,24/7,530234316,
ZESPÓŁ TRANSPORTU SANITARNEGO,,KATOWICE 40-749 UL. SOKOŁOWSKIEGO 2,50.19716455,19.0406001124002,transport,24/7,501 TOMASZ WINECKI FIRMA  TRANSPORTU SANITARNEGO,
503 ESKULAP WYJAZDOWA POMOC MEDYCZNA,,ZABRZE 41-818 UL. JANA HEWELIUSZA 13,50.33025895,18.7746136259663,hospital,24/7,500047483,
ZESPÓŁ TRANSPORTU SANITARNEGO,,ZABRZE 41-818 UL. JANA HEWELIUSZA 13,50.33025895,18.7746136259663,transport,24/7,511,
SZPITAL WOJEWÓDZKI W OPOLU SPÓŁKA Z O.O.,,OPOLE/45-372/AUGUSTYNA KOŚNEGO 53,50.6715023,17.9360342710196,hospital,24/7,"77 443 31 00,",
ODDZIAŁ CHORÓB ZAKAŹNYCH,,OPOLE/45-061/ KATOWICKA 64,50.67073455,17.9362909487377,hospital,24/7,"77  443 30 43, 77 443 30 44",
ODDZIAŁ ANESTEZJOLOGII I INTENSYWNEJ TERAPII,,OPOLE/45-061/ KATOWICKA 64,50.67073455,17.9362909487377,hospital,24/7,"77 44 33 599, 77 44 33 385, 77 44 33 386, 77 44 33 316, 77 44 33 315",
ODDZIAŁ PULMONOLOGII,,OPOLE/45-061/ KATOWICKA 64,50.67073455,17.9362909487377,hospital,24/7,"77 44 33 284, 77 44 33 253, 77 44 33 241, 77 44 33 282, 77 44 33 285",
SP ZAKŁAD OPIEKI ZDROWOTNEJ MSWIA W OPOLU,,OPOLE/45-075/KRAKOWSKA 44,50.6633741,17.9253812435547,hospital,24/7,77 401 11 00,
ODDZIAŁ ANESTEZJOLOGII I INTENSYWNEJ TERAPII,,OPOLE/45-075/KRAKOWSKA 44,50.6633741,17.9253812435547,hospital,24/7,"77 401 10 10, 77 401 10 11, 77 401 10 15,",
SP ZESPÓŁ OPIEKI ZDROWOTNEJ W KĘDZIERZYNIE-KOŹLU,,KĘDZIERZYN-KOŹLE/47-200/ 24 KWIETNIA 5,50.33216785,18.1497321430775,hospital,24/7,77 406 25 00,
BRZESKIE CENTRUM MEDYCZNE,,BRZEG49-301SERGIUSZA MOSSORA 1,50.857257,17.477543,hospital,24/7,77 444 65 36,
ODDZIAŁ ANESTEZJOLOGII I INTENSYWNEJ TERAPII,,BRZEG49-301SERGIUSZA MOSSORA 1,50.857257,17.477543,hospital,24/7,"77 444 66 14, 77 444 66 10, 77 444 66 09",
ODDZIAŁ CHORÓB WEWNĘTRZNYCH,,GŁUBCZYCE48-100SKŁODOWSKIEJ 26,50.91148,13.318443,hospital,24/7,"77 48 01 109, 77 48 01 107, 77 48 01 108",
POWIATOWE CENTRUM ZDROWIA S.A. W KLUCZBORKU,,KLUCZBORK46-200SKŁODOWSKIEJ-CURIE 23,50.911207,13.31769,hospital,24/7,77 417 35 00,
ODDZIAŁ CHORÓB WEWNĘTRZNYCH,,KLUCZBORK46-200SKŁODOWSKIEJ-CURIE 23,50.911207,13.31769,hospital,24/7,"77 417 35 61, 77 417 35 59, 77 417 35 58, 77 417 35 60, 77 417 35 65",
OPOLSKIE CENTRUM RATOWNICTWA MEDYCZNEGO,,OPOLE/45-369 /ADAMA MICKIEWICZA 2-4,50.6664716,17.9381356,hospital,24/7,77 441 36 39,
ZESPÓŁ TRANSPORTU SANITARNEGO,,OPOLE/45-369 /ADAMA MICKIEWICZA 2-4,50.6664716,17.9381356,transport,24/7,"600 498 685, 690 497 875, 77 441 36 00 , 77 551 36 01",
"KLINICZNE CENTRUM GINEKOLOGII, POŁOŻNICTWA I NEONATOLOGII W OPOLU",,OPOLE/45-057/REYMONTA 8,50.66681125,17.9284108619044,hospital,24/7,77 454 54 01,
ZESPÓŁ OPIEKI ZDROWOTNEJ W BIAŁEJ,,BIAŁA/48-210/ MONIUSZKI 8,50.3871156,17.6619041506566,hospital,24/7,"77 438 70 33, 77 438 72 16",
OPOLSKIE CENTRUM REHABILITACJI SPÓŁKA Z O.O,,KORFANTÓW/ 48-317/WYZWOLENIA 11,50.4883847,17.5929270386197,hospital,24/7,"77 43 44 000, 77 43 44 005",
WOJEWÓDZKI SZPITAL SPECJALISTYCZNY IM. ŚW. JADWIGI W OPOLU,,OPOLE/ 45-221/WODOCIĄGOWA 4,50.6760187,17.940564594867,hospital,24/7,77 54 14 200,
PRUDNICKIE CENTRUM MEDYCZNE SPÓŁKA AKCYJNA W PRUDNIKU,,PRUDNIK/ 48-200/SZPITALNA 14,50.32361145,17.5692491745991,hospital,24/7,77 406 78 00,
KRAPKOWICKIE CENTRUM ZDROWIA,,KRAPKOWICE/ 47-303/XXX-LECIA 21,50.4030799,17.8994008,hospital,24/7,"77 4467228, 77 4467229",
NAMYSŁOWSKIE CENTRUM ZDROWIA,,NAMYSŁÓW/46-100/OLEŚNICKA 4,51.08320585,17.7088247097125,hospital,24/7,"77 404 02 48, 77 404 02 50",
SZPITAL OGÓLNY IM. DR WITOLDA GINELA W GRAJEWIE,,"GRAJEWO 19-200, KONSTYTUCJI 3 MAJA 34",53.64611755,22.4699462806249,hospital,24/7,86 272 32 71,
PRZEDSIĘBIORSTWO OPIEKI SZPITALNEJ - ODDZIAŁ OBSERWACYJNO - ZAKAŹNY,,"GRAJEWO 19-200, KONSTYTUCJI 3 MAJA 34",53.64611755,22.4699462806249,hospital,24/7,86 272 32 71 WEW. 233,
SAMODZIELNY PUBLICZNY ZAKŁAD OPIEKI ZDROWOTNEJ W AUGUSTOWIE,,"AUGUSTÓW, 16-300, SZPITALNA 12",53.8480175,22.9887483,hospital,24/7,87 644 42 84,
SZPITAL - ODDZIAŁ OBSERWACYJNO - ZAKAŹNY,,"AUGUSTÓW, 16-300, SZPITALNA 12",53.8480175,22.9887483,hospital,24/7,87 64 44 250,
SAMODZIELNY PUBLICZNY ZAKŁAD OPIEKI ZDROWOTNEJ W HAJNÓWCE,,"HAJNÓWKA, 17-200 DOC. ADAMA
DOWGIRDA, 9",52.741585,23.586658,hospital,24/7,85 682 92 02,
SZPITAL IM. LEK. WŁODZIMIERZA MANTIUKA - ODDZIAŁ OBSERWACYJNO-,,"HAJNÓWKA, 17-200, DOC. ADAMA
DOWGIRDA, 9",52.741585,23.586658,hospital,24/7,606997561,
SZPITAL WOJEWÓDZKI IM. KARDYNAŁA STEFANA WYSZYŃSKIEGO W ŁOMŻY,,676 PIŁSUDSKIEGO 11,53.7728761,20.5003733,hospital,24/7,86 473 36 24,
SZPITAL WOJEWÓDZKI IM. KARDYNAŁA STEFANA WYSZYŃSKIEGO W ŁOMŻY,,684 PIŁSUDSKIEGO 11,53.7728761,20.5003733,hospital,24/7,86 473 36 24,
SZPITAL SPECJALISTYCZNY - KLINIKA CHORÓB ZAKAŹNYCH I NEUROINFEKCJI,,15-540 BIAŁYSTOK UL. ŻURAWIA 14,53.1097655,23.1891930013353,hospital,24/7,85 740 95 73,
"SZPITAL SPECJALISTYCZNY - KLINIKA
CHORÓB ZAKAŹNYCH I HEPATOLOGII Z
PODODDZIAŁAMI: OBSERWACYJNYM,
ZAKAŻONYCH HIV I CHORYCH NA AIDS",,15-540 BIAŁYSTOK UL. ŻURAWIA 14,53.1097655,23.1891930013353,hospital,24/7,85 740 95 73,
SZPITAL SPECJALISTYCZNY - PODODDZIAŁ DLA ZAKAŻONYCH HIV I CHORYCH NA AIDS,,15-540 BIAŁYSTOK UL. ŻURAWIA 14,53.1097655,23.1891930013353,hospital,24/7,85 740 95 73,
SZPITAL SPECJALISTYCZNY - KLINIKA CHORÓB ZAKAŹNYCH I CHORÓB WĄTROBY,,15-540 BIAŁYSTOK UL. ŻURAWIA 14,53.1097655,23.1891930013353,hospital,24/7,85 740 95 73,
UNIWERSYTECKI DZIECIĘCY SZPITAL KLINICZNY IM. L. ZAMENHOFA W,,"BIAŁYSTOK 15-274, JERZEGO
WASZYNGTONA, 17",53.124021,23.155517,hospital,24/7,85 745 05 00,
DZIECIĘCY SZPITAL UNIWERSYTECKI - KLINIKA OBSERWACYJNO - ZAKAŹNA DZIECI,,"BIAŁYSTOK 15-274, JERZEGO
WASZYNGTONA, 17",53.124021,23.155517,hospital,24/7,85 745 06 93,
WOJEWÓDZKA STACJA POGOTOWIA RATUNKOWEGO SP ZOZ W SUWAŁKACH,,"UL. MICKIEWICZA 11, 16-400 SUWAŁKI",54.063077,22.964111,transport,24/7,,
WOJEWÓDZKA STACJA POGOTOWIA RATUNKOWEGO W SUWAŁKACH - ZESPÓŁ,,"UL. MICKIEWICZA 11, 16-400 SUWAŁKI",54.063077,22.964111,transport,24/7,718,
WOJEWÓDZKA STACJA POGOTOWIA RATUNKOWEGO W SUWAŁKACH - ZESPÓŁ,,"UL. ROSICZKOWA 2, 16-300 AUGUSTÓW",53.8343657,22.9698277133051,transport,24/7,722,
WOJEWÓDZKA STACJA POGOTOWIA RATUNKOWEGO SAMODZIELNY PUBLICZNY,,"UL. SZOSA ZAMBROWSKA 1/19, 18-400
ŁOMŻA",53.174714,22.07887,transport,24/7,86 216 62 15,
WOJEWÓDZKA STACJA POGOTOWIA RATUNKOWEGO W ŁOMŻY-ZESPÓŁ,,"UL. SZOSA ZAMBROWSKA 1/19, 18-400
ŁOMŻA",53.174714,22.07887,transport,24/7,730,
WOJEWÓDZKA STACJA POGOTOWIA RATUNKOWEGO W ŁOMŻY-ZESPÓŁ,,"UL. WOJSKA POLSKIEGO 74B, 19-200
GRAJEWO",53.639315,22.46877,transport,24/7,734,
SAMODZIELNY PUBLICZNY ZAKŁAD OPIEKI ZDROWOTNEJ WOJEWÓDZKA STACJA,,"UL. POLESKA 89, 15-874 BIAŁYSTOK",53.13769,23.144253,hospital,24/7,85 663 73 01,
WOJEWÓDZKA STACJA POGOTOWIA RATUNKOWEGO W BIAŁYMSTOKU-ZESPÓŁ,,"UL. POLESKA 89, 15-874 BIAŁYSTOK",53.13769,23.144253,transport,24/7,745,
SAMODZIELNY PUBLICZNY ZAKŁAD OPIEKI ZDROWOTNEJ MINISTERSTWA SPRAW,,"BIAŁYSTOK, 15-471, UL. FABRYCZNA 27",53.13935395,23.1658275038046,hospital,24/7,85 869 35 50,
SAMODZIELNY PUBLICZNY ZAKŁAD OPIEKI ZDROWOTNEJ MINISTERSTWA SPRAW,,"BIAŁYSTOK, 15-471, UL. FABRYCZNA 27",53.13935395,23.1658275038046,hospital,24/7,85 869 35 50,
"STOWARZYSZENIE POMOCY RODZINOM
""NADZIEJA""",,"ŁOMŻA, 18-400, UL. ZAWADZKA 55",53.1578185,22.0757325554692,hospital,24/7,600101162,
ZESPÓŁ TRANSPORTU MEDYCZNEGO,,"ŁOMŻA, 18-400, UL. ZAWADZKA 55",53.1578185,22.0757325554692,transport,24/7,761,
SAMODZIELNY PUBLICZNY ZAKŁAD OPIEKI ZDROWOTNEJ SZPITAL UNIWERSYTECKI W KRAKOWIE,,"KRAKÓW, 31-501, UL. MIKOŁAJA KOPERNIKA 36",50.0629778,19.9513069,hospital,24/7,"+48 12 424 70 00, +48 12 424 70 01",
SZPITAL UNIWERSYTECKI W KRAKOWIE - SAMODZIELNY PUBLICZNY ZAKŁAD OPIEKI ZDROWOTNEJ,,"KRAKÓW, 30-688,  UL. M. JAKUBOWSKIEGO 2",50.052652,19.987345,hospital,24/7,"+48 12 400 20 00, +48 12 400 20 12, +48 400 20 47",
SZPITAL SPECJALISTYCZNY IM. STEFANA ŻEROMSKIEGO SAMODZIELNY PUBLICZNY ZAKŁAD OPIEKI ZDROWOTNEJ W KRAKOWIE,,"KRAKÓW, 31-913, OS. NA SKARPIE 66",50.06550345,20.0461958962875,hospital,24/7,"+ 48 12 644 01 44, +48 12 622 94 65",
SZPITAL SPECJALISTYCZNY IM. STEFANA ŻEROMSKIEGO SAMODZIELNY PUBLICZNY ZAKŁAD OPIEKI ZDROWOTNEJ W KRAKOWIE,,"KRAKÓW, 31-913, OS. NA SKARPIE 66",50.06550345,20.0461958962875,hospital,24/7,"+ 48 12 622 94 03, + 48 12 622 93 90, + 48 12 622 95 02",
SAMODZIELNY PUBLICZNY ZAKŁAD OPIEKI ZDROWOTNEJ W MYŚLENICACH,,"MYŚLENICE, 32 - 400, UL. SZPITALNA 2",49.8290211,19.9463865664783,hospital,24/7,"+48 12 272 10 85, +48 12 273 03 55",
SAMODZIELNY PUBLICZNY ZAKŁAD OPIEKI ZDROWOTNEJ W MYŚLENICACH,,"MYŚLENICE, 32 - 400, UL. SZPITALNA 2",49.8290211,19.9463865664783,hospital,24/7,"+48 12 273-03-50, +48 12 273-03-54",
SPECJALISTYCZNY SZPITAL IM. E. SZCZEKLIKA W TARNOWIE,,"TARNÓW, 33-100, UL. SZPITALNA 13",50.0161723,20.9947686,hospital,24/7,"+48 14 63 10 100,",
SPECJALISTYCZNY SZPITAL IM. E. SZCZEKLIKA W TARNOWIE,,"TARNÓW, 33-100, UL. SZPITALNA 13",50.0161723,20.9947686,hospital,24/7,"+ 48 14 63 10 498, + 48 14 63 10 419, +48 14 63 10 508",
KRAKOWSKI SZPITAL SPECJALISTYCZNY IM. JANA PAWŁA II W KRAKOWIE,,"KRAKÓW, 31-202, UL. PRĄDNICKA 80",50.0899651,19.9369008,hospital,24/7,"+48 12 614 20 00, +48 12 614 20 01",
KRAKOWSKI SZPITAL SPECJALISTYCZNY IM. JANA PAWŁA II W KRAKOWIE,,"KRAKÓW, 31-202, UL. PRĄDNICKA 80",50.0899651,19.9369008,hospital,24/7,"+48 12 614 23 22, +48 12 614 23 26 802",
SZPITAL SPECJALISTYCZNY IM. JĘDRZEJA ŚNIADECKIEGO W NOWYM SĄCZU,,"NOWY SĄCZ, 33 - 300, UL. MŁYŃSKA 10",49.61975215,20.7003043172548,hospital,24/7,+ 48 18 443 88 77,
SZPITAL SPECJALISTYCZNY IM. JĘDRZEJA ŚNIADECKIEGO W NOWYM SĄCZU,,"DĄBROWA 1, WIELOGŁOWY 33-311",49.6731,20.69125,hospital,24/7,+ 48 18 44-32-123,
SZPITAL SPECJALISTYCZNY IM. JĘDRZEJA ŚNIADECKIEGO W NOWYM SĄCZU,,"NOWY SĄCZ, 33 - 300, UL. MŁYŃSKA 10",49.61975215,20.7003043172548,hospital,24/7,"+ 48 18 44-25-802, + 48 18 44-25-872",
ZESPÓŁ OPIEKI ZDROWOTNEJ W DĄBROWIE TARNOWSKIEJ,,"DĄBROWA TARNOWSKA, 33-200, UL. SZPITALNA 1",50.1770168,20.9766395371034,hospital,24/7,"+48 014 642 28 31, + 48 014 642 27 50",
ZESPÓŁ OPIEKI ZDROWOTNEJ W DĄBROWIE TARNOWSKIEJ,,"DĄBROWA TARNOWSKA, 33-200, UL. SZPITALNA 1",50.1770168,20.9766395371034,hospital,24/7,"+ 48 14 644 32 61, + 48  14 644 32 88",
NOWY SZPITAL W OLKUSZU SPÓŁKA Z OGRANICZONĄ ODPOWIEDZIALNOŚCIĄ,,"OLKUSZ, 32-300, UL. 1000-LECIA 13",50.268612,19.570096,hospital,24/7,+ 48 41 240 1200,
NOWY SZPITAL W OLKUSZU SPÓŁKA Z OGRANICZONĄ ODPOWIEDZIALNOŚCIĄ,,"OLKUSZ, 32-300, UL. 1000-LECIA 13",50.268612,19.570096,hospital,24/7,"+ 48 41 240 1272, + 48 41 240 1276",
SAMODZIELNY PUBLICZNY ZESPÓŁ OPIEKI ZDROWOTNEJ W PROSZOWICACH,,"PROSZOWICE, 32-100, UL. MIKOŁAJA KOPERNIKA 13",50.1859056,20.2990295,hospital,24/7,"+48 12 386 51 00, +48 12 386 51 05",
SAMODZIELNY PUBLICZNY ZESPÓŁ OPIEKI ZDROWOTNEJ W PROSZOWICACH,,"PROSZOWICE, 32-100, UL. MIKOŁAJA KOPERNIKA 13",50.1859056,20.2990295,hospital,24/7,"+48 12 386 52 10, + 48 12 386 52 11, +48 12 386 51 60",
SZPITAL ŚW. ANNY W MIECHOWIE,,"MIECHÓW, 32-200, UL. SZPITALNA 3",50.3539707,20.0345555,hospital,24/7,"+48 41 38 20 100,",
SZPITAL ŚW. ANNY W MIECHOWIE,,"MIECHÓW, 32-200, UL. SZPITALNA 3",50.3539707,20.0345555,hospital,24/7,"+ 48 41 38 20 289, + 48  41 38 20 364, + 48 41 38 20 299",
SAMODZIELNY PUBLICZNY ZAKŁAD OPIEKI ZDROWOTNEJ - SĄDECKIE POGOTOWIE RATUNKOWE,,"UL. ŚNIADECKICH 15, 33-300 NOWY SĄCZ",49.6167789,20.7033002,hospital,24/7,+48 18 442 09 49,
SAMODZIELNY PUBLICZNY ZAKŁAD OPIEKI ZDROWOTNEJ - SĄDECKIE POGOTOWIE RATUNKOWE (2 ZESPOŁY TRANSPORTU SANITARNEGO),,"UL. ŚNIADECKICH 15, 33-300 NOWY SĄCZ",49.6167789,20.7033002,transport,24/7,854,
PODHALAŃSKI SZPITAL SPECJALISTYCZNY IM. JANA PAWŁA II W NOWYM TARGU,,"UL. SZPITALNA 14, 34-400 NOWY TARG",49.49013635,20.0276193429691,hospital,24/7,+48 18 263 30 01,
MAŁOPOLSKA KOLUMNA TRANSPORTU SANITARNEGO W TARNOWIE,,"UL. CHYSZOWSKA 10, 33-100 TARNÓW",50.00912965,20.9593948982068,transport,24/7,+48 14 621 04 98,
MAŁOPOLSKA KOLUMNA TRANSPORTU SANITARNEGO W TARNOWIE (2 ZESPOŁY TRANSPORTU SANITARNEGO),,"UL. KOPERNIKA 19, 31-501 KRAKÓW",50.062481,19.951393,transport,24/7,869,
MAŁOPOLSKA KOLUMNA TRANSPORTU SANITARNEGO W TARNOWIE (1 ZESPÓŁ TRANSPORTU SANITARNEGO),,"UL. CHYSZOWSKA 10, 33-100 TARNÓW",50.00912965,20.9593948982068,transport,24/7,873,
SZPITAL POWIATOWY W LIMANOWEJ IMIENIA MIŁOSIERDZIA BOŻEGO,,"UL. PIŁSUDSKIEGO 61, 34-600 LIMANOWA",49.716558,20.413766,hospital,24/7,+48 18 330 17 00,
SZPITAL POWIATOWY W LIMANOWEJ IMIENIA MIŁOSIERDZIA BOŻEGO (1 ZESPÓŁ TRANSPORTU SANITARNEGO),,"UL. PIŁSUDSKIEGO 61, 34-600 LIMANOWA",49.716558,20.413766,transport,24/7,889,
SCANMED SPÓŁKA AKCYJNA,,"UL. ARMII KRAJOWEJ 18, 30-150 KRAKÓW",50.07179465,19.8959748309906,hospital,24/7,"+48 12 629 89 00, +48 12 629 88 00",
SCANMED SPÓŁKA AKCYJNA (1 ZESPÓŁ TRANSPORTU SANITARNEGO),,"UL. ARMII KRAJOWEJ 5, 30-150 KRAKÓW",50.0757524,19.88878,transport,24/7,897,
POWIATOWA STACJA POGOTOWIA RATUNKOWEGO W TARNOWIE,,"AL. MATKI BOŻEJ FATIMSKIEJ  2, 33-100 TARNÓW",50.016426,20.9918184556121,transport,24/7,+48 14 621 77 91,
POWIATOWA STACJA POGOTOWIA RATUNKOWEGO W TARNOWIE (1 ZESPÓŁ TRANSPORTU SANITARNEGO),,"AL. MATKI BOŻEJ FATIMSKIEJ 2, 33-100 TARNÓW",50.016426,20.9918184556121,transport,24/7,905,
"SAMODZIELNY PUBLICZNY SZPITAL KLINICZNY NR1 W LUBLINIE,",,"LUBLIN, 20-081,  UL. STASZICA 16",51.2506105,22.5625164072842,hospital,24/7,81 532 39 35,
LECZNICTWO SZPITALNE SPSK NR 1 W LUBLINIE,,"LUBLIN, 20-081,  UL. STASZICA 16",51.2506105,22.5625164072842,hospital,24/7,81 532 39 35 914,
SAMODZIELNY PUBLICZNY ZAKŁAD OPIEKI ZDROWOTNEJ W ŁUKOWIE,,"ŁUKÓW, 21-400,  UL. DOKTORA A. ROGALIŃSKIEGO 3",51.931985,22.379575,hospital,24/7,25 798 29 80,
ZESPÓŁ LECZNICTWA SZPITALNEGO,,"ŁUKÓW, 21-400,  UL. DOKTORA A. ROGALIŃSKIEGO 3",51.931985,22.379575,hospital,24/7,25 798 29 80,
SAMODZIELNY PUBLICZNY SZPITAL WOJEWÓDZKI IM. JANA BOŻEGO W LUBLINIE,,"LUBLIN,  20-089, UL. MIECZYSŁAWA BIERNACKIEGO 9",51.25574145,22.567671186553,hospital,24/7,81 740 20 39,
SZPITAL WIELOPROFILOWY,,"LUBLIN,  20-089, UL. MIECZYSŁAWA BIERNACKIEGO 9",51.25574145,22.567671186553,hospital,24/7,81 740 20 39,
WOJEWÓDZKI SZPITAL SPECJALISTYCZNY W BIAŁEJ PODLASKIEJ,,"BIAŁA PODLASKA, 21-500 , UL. TEREBELSKA 57-65",52.0465,23.11073,hospital,24/7,83 414 72 11,
WOJEWÓDZKI SZPITAL SPECJALISTYCZNY W BIAŁEJ PODLASKIEJ - SZPITAL,,"BIAŁA PODLASKA, 21-500 , UL. TEREBELSKA 57-65",52.0465,23.11073,hospital,24/7,83 414 72 11,
SAMODZIELNY PUBLICZNY WOJEWÓDZKI SZPITAL SPECJALISTYCZNY W CHEŁMIE,,"CHEŁM, 22-100,  UL. CERAMICZNA 1",51.1501864,23.4582021,hospital,24/7,943,
SAMODZIELNY PUBLICZNY WOJEWÓDZKI SZPITAL SPECJALISTYCZNY W CHEŁMIE-SZPITAL,,"CHEŁM, 22-100,  UL. SZPITALNA 53B",51.1486152,23.4564193,hospital,24/7,82 562 32 23,
SAMODZIELNY PUBLICZNY ZESPÓŁ OPIEKI ZDROWOTNEJ W TOMASZOWIE LUBELSKIM,,"TOMASZÓW LUBELSKI, 22-600 , UL. ALEJE GRUNWALDZKIE 1",50.443058,23.4159827,hospital,24/7,84 664 44 11,
SZPITAL,,"TOMASZÓW LUBELSKI, 22-600 , UL. ALEJE GRUNWALDZKIE 1",50.443058,23.4159827,hospital,24/7,84 664 44 11 DO 19,
SAMODZIELNY PUBLICZNY ZAKŁAD OPIEKI ZDROWOTNEJ W PUŁAWACH,,"PUŁAWY, 24-100 , UL. JÓZEFA BEMA 1",51.420829,21.9750042,hospital,24/7,81 45 02 274,
SZPITAL,,"PUŁAWY, 24-100 , UL. JÓZEFA BEMA 1",51.420829,21.9750042,hospital,24/7,81 45 02 274,
ARION SZPITALE SP. Z O.O. W UPADŁOŚCI,,"WARSZWA, 04-854,  UL. KAZIMIERZA KRÓLA 39",52.189987,21.181744,hospital,24/7,,
SZPITAL,,"BIŁGORAJ, 23-400, UL. POJASKA 5",50.52952125,22.7136909065445,hospital,24/7,84 688 22 05,
SAMODZIELNA PUBLICZNA STACJA POGOTOWIA RATUNKOWEGO I TRANSPORTU SANITARNEGO W ZAMOŚCIU,,"ZAMOŚĆ, 22-400 , STAROWIEJSKA 23",50.7315779,23.273673,transport,24/7,84 638 40 65,
WOJEWÓDZKIE POGOTOWIE RATUNKOWE SAMODZIELNY PUBLICZNY ZAKŁAD OPIEKI ZDROWOTNEJ W LUBLINIE,,"LUBLIN, 20-043, UL. SPADOCHRONIARZY 8",51.2482238,22.5320237,hospital,24/7,81 533 77 90,
STACJA POGOTOWIA RATUNKOWEGO SAMODZIELNY PUBLICZNY ZAKŁAD OPIEKI ZDROWOTNEJ W BIAŁEJ PODLASKIEJ,,"BIAŁA PODLASKA, 21-500, WARSZAWSKA 20",52.03124105,23.1096546085012,transport,24/7,83 343 40 68,
STACJA POGOTOWIA RATUNKOWEGO SAMODZIELNY PUBLICZNY ZAKŁAD OPIEKI ZDROWOTNEJ W BIAŁEJ PODLASKIEJ,,"BIAŁA PODLASKA, 21-500, WARSZAWSKA 20",52.03124105,23.1096546085012,transport,24/7,83 343 40 68,
STACJA RATOWNICTWA MEDYCZNEGO W CHEŁMIE SPZOZ,,"CHEŁM, 22-100 , REJOWIECKA 128",51.1463962,23.4373763,transport,24/7,82 565 52 34,
SZPITAL UNIWERSYTECKI IMIENIA KAROLA MARCINKOWSKIEGO W ZIELONEJ GÓRZE SPÓŁKA Z OGRANICZONĄ ODPOWIEDZIALNOŚCIĄ,,ZIELONA GÓRA/ 65-046/ UL. ZYTY 26,51.94147015,15.5194597114492,hospital,24/7,68 3296478; 68 3296481; 68 3296200,
WIELOSPECJALISTYCZNY SZPITAL WOJEWÓDZKI W GORZOWIE WLKP. SPÓŁKA Z OGRANICZONĄ ODPOWIEDZIALNOŚCIĄ,,GORZÓW WIELKOPOLSKI/ 66-400/ UL. JANA DEKERTA 1,52.7635523,15.2377100726301,hospital,24/7,957332249,
ODDZIAŁ ANESTEZJOLOGII I INTENSYWNEJ TERAPII,,GORZÓW WIELKOPOLSKI/ 66-400/ UL. FRANCISZKA WALCZAKA 42,52.75751395,15.2700392253143,hospital,24/7,957332258,
105. KRESOWY SZPITAL WOJSKOWY Z PRZYCHODNIĄ SAMODZIELNY PUBLICZNY ZAKŁAD OPIEKI ZDROWOTNEJ,,ŻARY/ 68-200/ UL. DOMAŃSKIEGO 2,51.6415692,15.1484862622133,hospital,24/7,684708849,
ODDZIAŁ POŁOŻNICZO-GINEKOLOGICZNY,,ŻAGAŃ/ 68-100/ UL. ŻELAZNA 1A,51.6124839,15.3319936396654,hospital,24/7,684772308,
ODDZIAŁ NOWORODKOWY,,ŻAGAŃ/ 68-100/ UL. ŻELAZNA 1A,51.6124839,15.3319936396654,hospital,24/7,684772312,
ODDZIAŁ PULMONOLOGII Z PODODDZIAŁEM CHORÓB WEWNĘTRZNYCH,,ŻAGAŃ/ 68-100/ UL. ŻELAZNA 1A,51.6124839,15.3319936396654,hospital,24/7,684772293,
SAMODZIELNY PUBLICZNY ZESPÓŁ ZAKŁADÓW OPIEKI ZDROWOTNEJ W KOZIENICACH,,"26-900 KOZIENICE, UL. AL.WŁ. SIKORSKIEGO 10",51.587037,21.546264,hospital,24/7,48 679 72 89; 48 679 72 96,
CHOROBY ZAKAŹNE,,"26-900 KOZIENICE, UL. AL.WŁ. SIKORSKIEGO 10",51.587037,21.546264,hospital,24/7,48 679 72 89; 48 679 72 96 1061,
WOJEWÓDZKI SZPITAL ZESPOLONY W PŁOCKU,,"09-400 PŁOCK, UL. MEDYCZNA 19",52.5573102,19.6548176747337,hospital,24/7,24 364 68 71; 24 364 64 03,
CHOROBY ZAKAŹNE,,"09-400 PŁOCK, UL. MEDYCZNA 19",52.5573102,19.6548176747337,hospital,24/7,24 364 68 71; 24 364 64 03 1071,
WOJEWÓDZKI SZPITAL ZAKAŹNY W WARSZAWIE,,"01-201 WARSZAWA, UL. WOLSKA 37",52.2344027,20.9719530132082,hospital,24/7,22 33 55 261,
CHOROBY ZAKAŹNE,,"01-201 WARSZAWA, UL. WOLSKA 37",52.2344027,20.9719530132082,hospital,24/7,22 33 55 261 1081,
MAZOWIECKI SZPITAL SPECJALISTYCZNY IM. DR. JÓZEFA PSARSKIEGO W OSTROŁĘCE,,"07-410 OSTROŁĘKA, AL. JANA PAWŁA II 120A",53.0623124,21.5901177,hospital,24/7,29 765 12 63; 29 765 12 54; 297 65 21 18,
CHOROBY ZAKAŹNE,,"07-410 OSTROŁĘKA, AL. JANA PAWŁA II 120A",53.0623124,21.5901177,hospital,24/7,29 765 12 63; 29 765 12 54; 297 65 21 18 1091,
SAMODZIELNY PUBLICZNY ZAKŁAD OPIEKI ZDROWOTNEJ W SIEDLCACH,,"08 -110 SIEDLCE, UL. JANA KILIŃSKIEGO 29",52.1629329,22.275448,hospital,24/7,25 632 20 61 DO 68 WEW. 213,
CHOROBY ZAKAŹNE,,"08 -110 SIEDLCE, UL. STAROWIEJSKA 15",52.1649485,22.3005658,hospital,24/7,25 632 20 61 DO 68 WEW. 213,
WOJSKOWY INSTYTUT MEDYCZNY CENTRALNEGO SZPITALA KLINICZNEGO MINISTRESTWA OBRONY NARODOWEJ,,"04-141 WARSZAWA, UL. SZASERÓW 128",52.25207525,21.0890925737613,hospital,24/7,261818622,
CHOROBY ZAKAŹNE,,"04-141 WARSZAWA, UL. SZASERÓW 128",52.25207525,21.0890925737613,hospital,24/7,261818627 1109,
UNIWERSYTECKIE CENTRUM KLINICZNE WARSZAWSKIEGO UNIWERSYTETU MEDYCZNEGO - DZIECIĘCY SZPITAL KLINICZNY IM. JÓZEFA POLIKARPA BRUDZIŃSKIEGO W WARSZAWIE,,"02-097 WARSZAWA, UL. BANACHA 1A",52.2098474,20.9843448,hospital,24/7,22 317 92 31,
CHOROBY ZAKAŹNE,,"02-091 WARSZAWA, UL. ŻWIRKI I WIGURY 63 A",52.2019173,20.9848334,hospital,24/7,22 317 92 31 1119,
SPECJALISTYCZNY SZPITAL WOJEWÓDZKI W CIECHANOWIE,,"06-400 CIECHANÓW, UL. POWSTAŃCÓW WIELKOPOLSKICH 2",52.8835407,20.6345738606436,hospital,24/7,23 673 02 77,
CHOROBY ZAKAŹNE,,"06-400 CIECHANÓW, UL. POWSTAŃCÓW WIELKOPOLSKICH 2",52.8835407,20.6345738606436,hospital,24/7,23 673 02 77 1129,
RADOMSKI SZPITAL SPECJALISTYCZNY IM. TYTUSA CHAŁUBIŃSKIEGO,,"26-610 RADOM, UL. LEKARSKA",51.4001093,21.1459725,hospital,24/7,48 361 52 20,
CHOROBY ZAKAŹNE,,"26-610 RADOM, UL. TOCHTERMANA 1",51.3998949,21.1458909,hospital,24/7,48 361 52 20 1139,
CENTRALNY SZPITAL KLINICZNY MINISTERSTWA SPRAW WEWNĘTRZNYCH I ADMINISTRACJI W WARSZAWIE,,"02-507 WARSZAWA, UL. WOŁOSKA 137",52.19902895,20.9983573717488,hospital,24/7,22 508 18 50,
CHOROBY ZAKAŹNE,,"02-507 WARSZAWA, UL. WOŁOSKA 137",52.19902895,20.9983573717488,hospital,24/7,22 508 18 50,
"""LUXURY MEDICAL CARE"" SPÓŁKA Z OGRANICZONĄ ODPOWIEDZIALNOŚCIĄ - SPÓŁKA
KOMANDYTOWA",,"00-195 WARSZAWA, SŁOMIŃSKIEGO 17/47",52.2570661,20.9899599,hospital,24/7,22 525 12 09 GŁÓWNY DYSPOZYTOR PRM W WARSZAWIE,
ZESPÓŁ TRANSPORTU SANITARNEGO,,"00-716 WARSZAWA, BARTYCKA 175",52.21228995,21.05077716467,transport,24/7,22 525 12 09 GŁÓWNY DYSPOZYTOR PRM W WARSZAWIE,
"""LUXURY MEDICAL CARE"" SPÓŁKA Z OGRANICZONĄ ODPOWIEDZIALNOŚCIĄ - SPÓŁKA
KOMANDYTOWA",,"00-716 WARSZAWA, BARTYCKA 175",52.21228995,21.05077716467,hospital,24/7,22 525 12 09 GŁÓWNY DYSPOZYTOR PRM W WARSZAWIE 1161,
"WOJEWÓDZKA STACJA POGOTOWIA RATUNKOWEGO I TRANSPORTU SANITARNEGO
""MEDITRANS"" SP ZOZ W WARSZAWIE",,"00-685 WARSZAWA, POZNAŃSKA 22",52.2259293,21.011937,transport,24/7,22 525 12 09 GŁÓWNY DYSPOZYTOR PRM W WARSZAWIE,
ZESPÓŁ TRANSPORTU SANITARNEGO,,"02-625 WARSZAWA, WORONICZA 19",52.18821435,21.0067099446758,transport,24/7,22 525 12 09 GŁÓWNY DYSPOZYTOR PRM W WARSZAWIE,
ZESPÓŁ TRANSPORTU SANITARNEGO,,"02-625 WARSZAWA, WORONICZA 19",52.18821435,21.0067099446758,transport,24/7,22 525 12 09 GŁÓWNY DYSPOZYTOR PRM W WARSZAWIE,
ZESPÓŁ TRANSPORTU SANITARNEGO,,"02-625 WARSZAWA, WORONICZA 19",52.18821435,21.0067099446758,transport,24/7,22 525 12 09 GŁÓWNY DYSPOZYTOR PRM W WARSZAWIE 1179,
SAMODZIELNY PUBLICZNY ZAKŁAD OPIEKI ZDROWOTNEJ WOJEWÓDZKA STACJA POGOTOWIA RATUNKOWEGO I TRANSPORTU SANITARNEGO W PŁOCKU,,"09-400 PŁOCK, UL. NARODOWYCH SIŁ ZBROJNYCH 5",52.560398,19.698442,transport,24/7,24 366 44 01 GŁÓWNY DYSPOZYTOR PRM W PŁOCKU,
ZESPÓŁ TRANSPORTU SANITARNEGO,,"09-402 PŁOCK, UL. STRZELECKA 3",52.5406884,19.7102547040902,transport,24/7,24 366 44 01 GŁÓWNY DYSPOZYTOR PRM W PŁOCKU 1189,
"ZESPÓŁ OPIEKI ZDROWOTNEJ ""SZPITALA POWIATOWEGO"" W SOCHACZEWIE",,"96-500 SOCHACZEW, BATALIONÓW CHŁOPSKICH 3/7",52.23911065,20.2266937672297,hospital,24/7,24 366 44 01 GŁÓWNY DYSPOZYTOR PRM W PŁOCKU,
ZESPÓŁ TRANSPORTU SANITARNEGO,,"96-500 SOCHACZEW, BATALIONÓW CHŁOPSKICH 3/7",52.23911065,20.2266937672297,transport,24/7,24 366 44 01 GŁÓWNY DYSPOZYTOR PRM W PŁOCKU,
RADOMSKA STACJA POGOTOWIA RATUNKOWEGO,,"26-600 RADOM, UL. TOCHTERMANA 1",51.3998949,21.1458909,transport,24/7,48 361 93 51 GŁÓWNY DYSPOZYTOR PRM W RADOMIU,
ZESPÓŁ TRANSPORTU SANITARNEGO,,"26-600 RADOM, UL. TOCHTERMANA 1",51.3998949,21.1458909,transport,24/7,48 361 93 51 GŁÓWNY DYSPOZYTOR PRM W RADOMIU 1207,
NZOZ IZI-MED S.C. IZABELLA KWIECIŃSKA PAWEŁ GRABARCZYK,,"26-800 BIAŁOBRZEGI, SPACEROWA 29",51.64814455,20.9629148419668,hospital,24/7,48 361 93 51 GŁÓWNY DYSPOZYTOR PRM W RADOMIU,
ZESPÓŁ TRANSPORTU SANITARNEGO,,"26-800 BIAŁOBRZEGI, SPACEROWA 29",51.64814455,20.9629148419668,transport,24/7,48 361 93 51 GŁÓWNY DYSPOZYTOR PRM W RADOMIU 1217,
"SAMODZIELNY PUBLICZNY ZAKŁAD OPIEKI ZDROWOTNEJ ""RM-MEDITRANS"" STACJA
POGOTOWIA RATUNKOWEGO I TRANSPORTU SANITARNEGO W SIEDLCACH",,"08-110 SIEDLCE, B-PA I ŚWIRSKIEGO 38",41.13296,-97.023886,hospital,24/7,508622044 GŁÓWNY DYSPOZYTOR PRM W SIEDLCACH,
ZESPÓŁ TRANSPORTU SANITARNEGO,,"08-110 SIEDLCE, B-PA I ŚWIRSKIEGO 38",41.13296,-97.023886,transport,24/7,508622044 GŁÓWNY DYSPOZYTOR PRM W SIEDLCACH,
ZESPÓŁ TRANSPORTU SANITARNEGO,,"08-110 SIEDLCE, B-PA I ŚWIRSKIEGO 38",41.13296,-97.023886,transport,24/7,508622044 GŁÓWNY DYSPOZYTOR PRM W SIEDLCACH 1231,
"SAMODZIELNY PUBLICZNY ZAKŁAD OPIEKI ZDROWOTNEJ ""MEDITRANS OSTROŁĘKA""
STACJA POGOTOWIA RATUNKOWEGO I TRANSPORTU SANITARNEGO W OSTROŁĘCE",,"07-410 OSTROŁĘKA, KOŚCIUSZKI 49",53.08758145,21.5729958201993,hospital,24/7,29 764 35 44 GŁÓWNY DYSPOZYTOR PRM W OSTROŁĘCE,
ZESPÓŁ TRANSPORTU SANITARNEGO,,"07-410 OSTROŁĘKA, ROLNA 28",53.0611651,21.58812635,transport,24/7,29 764 35 44 GŁÓWNY DYSPOZYTOR PRM W OSTROŁĘCE,
ZESPÓŁ TRANSPORTU SANITARNEGO,,"07-200 WYSZKÓW, PUŁTUSKA 23",52.6107926,21.3942532,transport,24/7,29 764 35 44 GŁÓWNY DYSPOZYTOR PRM W OSTROŁĘCE,
ZESPÓŁ OPIEKI ZDROWOTNEJ W NYSIE,,NYSA/48-300/BOHATERÓW WARSZAWY 34,50.47106205,17.3283169276505,hospital,24/7,77 408 78 30,
ODDZIAŁ OBSERWACYJNO-ZAKAŹNY,,NYSA/48-300/ BOHATERÓW WARSZAWY 34,50.47106205,17.3283169276505,hospital,24/7,77 408 79 56,
ODDZIAŁ ANESTEZJOLOGII I INTENSYWNEJ TERAPII,,NYSA/48-300/ BOHATERÓW WARSZAWY 23,50.47137455,17.3294028740279,hospital,24/7,77 40 87 9421 Z 8,
UNIWERSYTECKI SZPITAL KLINICZNY W OPOLU,,OPOLE/ 45-401/ALEJA WINCENTEGO WITOSA 26,50.6766038,17.9753298,hospital,24/7,77 452 07 45,
ODDZIAŁ ANESTEZJOLOGII I INTENSYWNEJ TERAPII,,OPOLE/ 45-401/ALEJA WINCENTEGO WITOSA 26,50.6766038,17.9753298,hospital,24/7,"77 45 20 300, 77 45 20 302, 77 45 20 304, 77 45 20 305",
ODDZIAŁ ANESTEZJOLOGII I INTENSYWNEJ TERAPII DZIECI I NOWORODKÓW,,OPOLE/ 45-401/ALEJA WINCENTEGO WITOSA 26,50.6766038,17.9753298,hospital,24/7,"77 45 20 734, 77 4520 730, 77 45 20 732, 77 45 20 7355 Z 8",
SAMODZIELNY PUBLICZNY ZAKŁAD OPIEKI ZDROWOTNEJ W BIELSKU PODLASKIM,,1282 1284,32.0981587,34.7832584,hospital,24/7,85 833 43 30,
1288 OBSERWACYJNO- ZAKAŹNY,,1291 1293,45.98024,14.5739199,hospital,24/7,85 833 43 56 SZPITAL WOJEWÓDZKI IM. DR. LUDWIKA,
1295 RYDYGIERA W SUWAŁKACH,,"SUWAŁKI, 16-400, SZPITALNA, 60",54.1190623,22.9262896196223,hospital,24/7,87 562 94 21,
1302 CHORÓB ZAKAŹNYCH,,"SUWAŁKI, 16-400, SZPITALNA, 60",54.1190623,22.9262896196223,hospital,24/7,87 562 92 15 ,
UNIWERSYTECKI SZPITAL KLINICZNY W BIAŁYMSTOKU,,1310 –CURIE 24A,49.6063407,6.1404887,hospital,24/7,,
LUBUSKI SZPITAL SPECJALISTYCZNY PULMONOLOGICZNO-KARDIOLOGICZNY W TORZYMIU SPÓŁKA Z OGRANICZONĄ ODPOWIEDZIALNOŚCIĄ,,TORZYM/ 66-235/ UL. WOJSKA POLSKIEGO 52,52.3148823,15.0632145,hospital,24/7,68 34 16 300,
ODDZIAŁ GRUŹLICY I CHORÓB PŁUC*,,TORZYM/ 66-235/ UL. WOJSKA POLSKIEGO 52,52.3148823,15.0632145,hospital,24/7,68 34 16 300 MIEJSCE UDZIELANIA ŚWIADCZEŃ 2,
ODDZIAŁ ONKOLOGII PULMONOLOGICZNEJ I CHEMIOTERAPII**,,TORZYM/ 66-235/ UL. WOJSKA POLSKIEGO 52,52.3148823,15.0632145,hospital,24/7,68 34 16 300,
NOWY SZPITAL W SZPROTAWIE SPÓŁKA Z OGRANICZONĄ ODPOWIEDZIALNOŚCIĄ,,SZPROTAWA/ 67-300/  UL. HENRYKOWSKA 1,51.56724245,15.5529162295467,hospital,24/7,412403628,
ODDZIAŁ CHORÓB WEWNĘTRZNYCH,,SZPROTAWA/ 67-300/  UL. HENRYKOWSKA 1,51.56724245,15.5529162295467,hospital,24/7,412403640 MIEJSCE UDZIELANIA ŚWIADCZEŃ 2,
ODDZIAŁ PEDIATRYCZNY,,SZPROTAWA/ 67-300/  UL. HENRYKOWSKA 1,51.56724245,15.5529162295467,hospital,24/7,412403646,
PARAMEDIC 24 SP. Z O. O.,,SZCZECIN71-040GEN. JÓZEFA HALLERA 11,53.466021,18.025171,hospital,24/7,601632822,
1341,,KOSTRZYN NAD ODRĄ/66-470/CZEREŚNIOWA 43,52.60146135,14.6421807230154,hospital,24/7,601632827,
116 SZPITAL WOJSKOWY Z PRZYCHODNIĄ SAMODZIELNY PUBLICZNY ZAKŁAD OPIEKI ZDROWOTNEJ,,OPOLE 45-759WALEREGO WRÓBLESKIEGO 46;,50.670192,17.927095,hospital,24/7,261-62-51-29,
CENTRUM TERAPII NERWIC W MOSZNEJ SPÓŁKA Z O.O.,,MOSZNA/47-370/ZAMKOWA 1A,50.4414772,17.7723145149258,hospital,24/7,"77 466 84 18,77 466 84 63",
ODDZIAŁ REHABILITACJI PSYCHIATRYCZNEJ,,MOSZNA/47-370/ZAMKOWA 1A,50.4414772,17.7723145149258,hospital,24/7,"77 466 84 18,77 466 84 63",
ODDZIAŁ LECZENIA ZABURZEŃ NERWICOWYCH,,MOSZNA/47-370/ZAMKOWA 1A,50.4414772,17.7723145149258,hospital,24/7,"77 466 84 18,77 466 84 63",
WOJEWÓDZKI SZPITAL OBSERWACYJNO-ZAKAŹNY IM.T.BOROWICZA ,,BVDEOSZCZ/85-030/UL. ŚWI TEEO FLORIANA 12  52325-56--07 ,50.015643,19.511354,hospital,24/7,TELEFON,
ODDZIAŁ KLINICZNY ALERGOLOGII DZIECIĘCEJ ,,WROCŁAW 50-368TYTUSA CHAŁUBIŃSKIEGO 2-2A71-733-11-10 ,51.110544,17.066837,hospital,24/7,TELEFON,
POGOTOWIE RATUNKOWE WE WROCŁAWIU ,,WROCŁAW50-507 ZIĘBICKA 34-38999112 ,50.587587,16.829994,hospital,24/7,TELEFON,
SAMODZIELNY PUBLICZNY WOJEWÓDZKI SZPITAL ZESPOLONY ,,"71-455 SZCZECIN, UL. ARKOŃSKA 4  ",53.453058,14.525886,hospital,24/7,91-813-90-45/91-813-90-09/91-813-93-30 ,
SAMODZIELNY PUBLICZNY WOJEWÓDZKI SZPITAL ZESPOLONY SZPITAL ZAKAŹNY,,"71-455 SZCZECIN, UL. ARKOŃSKA 4 ",53.453058,14.525886,hospital,24/7,91-813-90-45/91-813-90-09/91-813-93-30 ,
SAMODZIELNY PUBLICZNY WOJEWÓDZKI SZPITAL ZESPOLONY ODDZIAŁ CHORÓB PŁUC   ,,"70-840 SZCZECIN, UL. ALFREDA SOKOŁOWSKIEGO 11 ",53.439846,14.54859,hospital,24/7,91-442-72-42/91-442-72-60 ,
SZPITAL WOJEWÓDZKI IM. MIKOWA KOPERNIKA W KOSZALINIE ,,"75-581 KOSZALIN, UL. CHAŁUBIŃSKIEGO 7  ",54.1993937,16.2115804592507,hospital,24/7,94-348-84-00/94-348-82-99 ,
SZPITAL WOJEWÓDZKI IM. MIKOWA KOPERNIKA W KOSZALINIE,,"75-581 KOSZALIN, UL. CHAŁUBIŃSKIEGO 7 ",54.1993937,16.2115804592507,hospital,24/7,94-34-88-400/94-34-88-376 ,
SP ZOZ 107 SZPITAL WOJSKOWY W WAŁCZU ,,"78-600 WAŁCZ, UL. KOŁOBRZESKA 44  ",53.2831065,16.460239,hospital,24/7,261-47-29-12 ,
"SAMODZIELNY PUBLICZNY SPECJALISTYCZNY ZOZ ""ZDROJE"" ",,"70-780 SZCZECIN, UL. MĄCZNA 4  91-880-62-50/91-880-64-80 ",53.439846,14.54859,hospital,24/7,TELEFON,
"SAMODZIELNY PUBLICZNY SPECJALISTYCZNY ZOZ ""ZDROJE"" ",,"70-780 SZCZECIN, UL. MĄCZNA 4 ",53.3727165,14.6416791012626,hospital,24/7,91-880-63-95/91-880-65-33 ,
ZESPÓŁ GRUŹLICY I CHORÓB PŁUC ,,"75-252 KOSZALIN, UL. NIEPODLEGŁOŚCI 44-48  94-342-20-51/94-342-33-39 ",54.194135,16.176182,hospital,24/7,TELEFON,
ZESPÓŁ GRUŹLICY I CHORÓB PŁUC ,,"75-252 KOSZALIN, UL. NIEPODLEGŁOŚCI 44-48 ",54.1939634,16.1763722,hospital,24/7,94-340-67-42/94-340-63-84 ,
WOJEWÓDZKA STACJA POGOTOWIA RATUNKOWEGO ,,"71-011 SZCZECIN, UL. MIESZKA I 33  ",53.4112391,14.5196561,transport,24/7,91-433-38-01/91-433-57-54 ,
WOJEWÓDZKA STACJA POGOTOWIA RATUNKOWEGO  ZESPÓŁ TRANSPORTU SANITARNEGO (DWA ZESPOŁY) ,,"70-482 SZCZECIN, UL. WOJSKA POLSKIEGO 92-94 ",53.451314,14.51326,transport,24/7, 91-888-43-10/91-888-43-11 ,
WOJEWÓDZKA STACJA POGOTOWIA RATUNKOWEGO  ZESPÓŁ TRANSPORTU SANITARNEGO ,,"70-806 SZCZECIN, UL. GRYFIŃSKA 2A ",53.3921473,14.6622607,transport,24/7, 91-888-43-10/91-888-43-11 ,
WOJEWÓDZKA STACJA POGOTOWIA RATUNKOWEGO  ZESPÓŁ TRANSPORTU SANITARNEGO ,,"75-404 KOSZALIN, UL. KOŚCIUSZKI 5 ",54.19297725,16.1956241752555,transport,24/7, 91-888-43-10/91-888-43-11 ,
WOJEWÓDZKA STACJA POGOTOWIA RATUNKOWEGO  ZESPÓŁ TRANSPORTU SANITARNEGO ,,"78-600 WAŁCZ, UL. DĄBROWSKIEGO 24 ",53.2761712,16.4720143707423,transport,24/7, 91-888-43-10/91-888-43-11 ,
WOJEWÓDZKA STACJA POGOTOWIA RATUNKOWEGO  ZESPÓŁ TRANSPORTU SANITARNEGO (DWA ZESPOŁY) ,,"72-600 ŚWINOUJŚCIE, UL. MIESZKA I 5 ",53.9094439,14.2576457779616,transport,24/7, 91-888-43-10/91-888-43-11 ,
WOJEWÓDZKA STACJA POGOTOWIA RATUNKOWEGO  ZESPÓŁ TRANSPORTU SANITARNEGO ,,"74-100 GRYFINO, UL. ŻOŁNIERZY WYKLĘTYCH 1 ",53.24967445,14.488673077672,transport,24/7, 91-888-43-10/91-888-43-11 ,
WOJEWÓDZKA STACJA POGOTOWIA RATUNKOWEGO  ZESPÓŁ TRANSPORTU SANITARNEGO ,,"74-500 CHOJNA, UL. POLNA 3A ",52.9574368,14.4422333334023,transport,24/7, 91-888-43-10/91-888-43-11 ,
SAMODZIELNY PUBLICZNY SZPITAL KLINICZNY NR 1 IM. PROF.TADEUSZA SOKOŁOWSKIEGO POMORSKIEGO UNIWERSYTETU MEDYCZNEGO W SZCZECINIE ,,"71-252 SZCZECIN, UL. UNII LUBELSKIEJ 1  91-425-30-00/91-425-30-02 ",53.449262,14.505389,hospital,24/7,TELEFON,
SP SZPITAL KLINICZNY NR 1 IM. PROF.TADEUSZA SOKOŁOWSKIEGO PUM W SZCZECINIE  ŚWIADCZENIA PSYCHIATRYCZNE DLA DOROSŁYCH ,,"71-460 SZCZECIN, UL. BRONIEWSKIEGO 26 ",53.453966,14.532848,hospital,24/7, 91-35-11-300/91-35-11-322 ,
PARAMEDIC 24 SPÓŁKA Z OGRANICZONĄ ODPOWIEDZIALNOŚCIĄ ,,"70-040 SZCZECIN, UL. GEN. JÓZEFA HALLERA 11507199600",53.439846,14.54859,hospital,24/7,TELEFON,
PARAMEDIC 24 SPÓŁKA Z OGRANICZONA ODPOWIEDZIALNOŚCIĄ  ZESPÓŁ TRANSPORTU SANITARNEGO (TRZY ZESPOTY) ,,"71-771 SZCZECIN, UL. ROSTOCKA 152 ",53.4711143,14.5493921515913,transport,24/7, 91-888-43-10/91-888-43-11 ,
PARAMEDIC 24 SPÓŁKA Z OGRANICZONA ODPOWIEDZIALNOŚCIĄ  ZESPÓŁ TRANSPORTU SANITARNEGO ,,"76-150 DARŁOWO, UL. WŁADYSŁAWA IV 26 ",54.43666,16.37808,transport,24/7, 91-888-43-10/91-888-43-11 ,
PARAMEDIC 24 SPÓŁKA Z OGRANICZONA ODPOWIEDZIALNOŚCIĄ  ZESPÓŁ TRANSPORTU SANITARNEGO ,,"73-200 CHOSZCZNO, UL. WOLNOŚCI 17 15 ",53.1665411,15.4019774,transport,24/7, 91-888-43-10/91-888-43-11 ,
WIELOSPECJALISTYCZNY SZPITAL MIEJSKI IM. JÓZEFA STRUSIA Z ZAKŁADEM,,"POZNAŃ 61-285, UL. SZWAJCARSKA 3",52.3895197,16.995482,hospital,24/7,61 873 90 000,
WOJEWÓDZKI SZPITAL ZESPOLONY IM. DR. ROMANA OSTRZYCKIEGO W,,"KONIN 62-504, UL. SZPITALNA 45",52.1913128,18.2331492,hospital,24/7,63 240 43 000,
ODDZIAŁ OBSERWACYJNO-ZAKAŹNY Z PODODDZIAŁEM ZAKAŹNYM DZIECIĘCYM,,"KONIN 62-504, UL. SZPITALNA 45",52.1913128,18.2331492,hospital,24/7,63 240 44 02,
GINEKOLOGICZNO-POŁOŻNICZY SZPITAL KLINICZNY UNIWERSYTETU,,"POZNAŃ 60-535, UL. POLNA 33",52.40939215,16.8955725985462,hospital,24/7,61 841 92 73,
ODDZIAŁ NIEPŁODNOŚCI I ENDOKRYNOLOGII ROZRODU,,"POZNAŃ 60-535, UL. POLNA 33",52.40939215,16.8955725985462,hospital,24/7,61 841 92 25,
SZPITAL MIEJSKI ŚW. JANA PAWŁA II W,,"ELBLĄG, 82-300, UL. JANA AMOSA KOMEŃSKIEGO 35",54.1555301,19.4263318171208,hospital,24/7,55 230 42 58,
SZPITAL MIEJSKI ŚW. JANA PAWŁA II W,,"ELBLĄG, 82-300, UL. STEFANA ŻEROMSKIEGO 22",54.1576499,19.4234459878309,hospital,24/7,55 230 42 58,
WOJEWÓDZKI SPECJALISTYCZNY SZPITAL,,"OLSZTYN, 10-651, UL. ŻOŁNIERSKA 18 A",53.769173,20.491182,hospital,24/7,89 539 34 21,
